[{"OBJECT_NAME":"STARLINK-34004","OBJECT_ID":"2025-098R","EPOCH":"2026-03-09T21:20:21.238080","MEAN_MOTION":14.98333476,"ECCENTRICITY":0.0002577,"INCLINATION":70.0004,"RA_OF_ASC_NODE":273.8907,"ARG_OF_PERICENTER":262.3532,"MEAN_ANOMALY":97.7334,"EPHEMERIS_TYPE":0,"CLASSIFICATION_TYPE":"U","NORAD_CAT_ID":63941,"ELEMENT_SET_NO":999,"REV_AT_EPOCH":4658,"BSTAR":0.00046685287,"MEAN_MOTION_DOT":5.482e-5,"MEAN_MOTION_DDOT":0},{"OBJECT_NAME":"COSMOS 374 DEB","OBJECT_ID":"1970-089H","EPOCH":"2026-03-09T12:27:41.883264","MEAN_MOTION":13.59474503,"ECCENTRICITY":0.06426222,"INCLINATION":62.9221,"RA_OF_ASC_NODE":68.1933,"ARG_OF_PERICENTER":199.9559,"MEAN_ANOMALY":157.5262,"EPHEMERIS_TYPE":0,"CLASSIFICATION_TYPE":"U","NORAD_CAT_ID":4621,"ELEMENT_SET_NO":999,"REV_AT_EPOCH":66798,"BSTAR":0.00036640968,"MEAN_MOTION_DOT":9.73e-6,"MEAN_MOTION_DDOT":0}]
